ONEWEB-0298             
1 49087U 21075N   25339.17518887  .00000122  00000+0  28082-3 0  9997
2 49087  87.9117  44.4515 0001796 101.8676 258.2657 13.17649214208078
ONEWEB-0299             
1 49088U 21075P   25339.17674050  .00000050  00000+0  96677-4 0  9999
2 49088  87.9126  44.4122 0001616 105.4682 254.6628 13.17649447208055
ONEWEB-0300             
1 49089U 21075Q   25339.15661836 -.00000085  00000+0 -27054-3 0  9998
2 49089  87.8950  29.1967 0002049 105.1676 254.9679 13.12443086209751
ONEWEB-0301             
1 49090U 21075R   25339.21664134  .00000455  00000+0  12301-2 0  9998
2 49090  87.8948  29.1863 0002123 105.8743 254.2620 13.12442981209123
ONEWEB-0302             
1 49091U 21075S   25339.20365836  .00000433  00000+0  11675-2 0  9994
2 49091  87.8948  29.1972 0001492  89.3547 270.7753 13.12444837209101
ONEWEB-0304             
1 49092U 21075T   25339.15143280  .00000066  00000+0  13764-3 0  9990
2 49092  87.9126  44.4477 0001615 102.6264 257.5048 13.17648509208020
ONEWEB-0305             
1 49093U 21075U   25339.22060706  .00000055  00000+0  10947-3 0  9998
2 49093  87.9130  44.4111 0001419 112.6362 247.4919 13.17650388208060
ONEWEB-0308             
1 49094U 21075V   25339.19716457  .00000265  00000+0  70204-3 0  9991
2 49094  87.8950  29.1915 0001749  98.2536 261.8791 13.12444117209111
ONEWEB-0309             
1 49095U 21075W   25339.22398835  .00000022  00000+0  22373-4 0  9998
2 49095  87.9130  44.4263 0001488  87.7683 272.3619 13.17649274208037
ONEWEB-0310             
1 49096U 21075X   25339.21176510  .00000583  00000+0  15848-2 0  9991
2 49096  87.8942  29.2261 0001648  95.1267 265.0049 13.12444108209745
ONEWEB-0311             
1 49097U 21075Y   25339.15479912  .00000108  00000+0  24438-3 0  9996
2 49097  87.9125  44.4360 0001559 112.4599 247.6698 13.17647911208074
ONEWEB-0312             
1 49098U 21075Z   25339.16999162  .00000037  00000+0  62047-4 0  9992
2 49098  87.9113  44.4595 0001339 102.1680 257.9601 13.17648930208053
ONEWEB-0313             
1 49099U 21075AA  25339.17492258  .00000093  00000+0  20522-3 0  9991
2 49099  87.9114  44.4664 0001625 103.8437 256.2876 13.17651363208047
ONEWEB-0314             
1 49100U 21075AB  25339.21723813 -.00000008  00000+0 -53525-4 0  9991
2 49100  87.9130  44.4093 0001309 105.0730 255.0547 13.17649435208020
ONEWEB-0315             
1 49101U 21075AC  25339.18581170 -.00000140  00000+0 -42517-3 0  9991
2 49101  87.8946  29.1796 0001654 111.7769 248.3536 13.12444841209724
ONEWEB-0316             
1 49102U 21075AD  25339.14266231  .00000072  00000+0  14903-3 0  9996
2 49102  87.9186  14.0077 0001736  98.4044 261.7285 13.18685390211630
ONEWEB-0317             
1 49103U 21075AE  25339.17932308 -.00000249  00000+0 -72660-3 0  9997
2 49103  87.8949  29.1982 0001958  75.3980 284.7366 13.12442530209743
