[{"OBJECT_NAME":"ONEWEB-0298","OBJECT_ID":"2021-075N","EPOCH":"2025-12-05T04:12:16.318368","MEAN_MOTION":13.17649214,"ECCENTRICITY":0.00017966,"INCLINATION":87.9117,"RA_OF_ASC_NODE":44.4515,"ARG_OF_PERICENTER":101.8676,"MEAN_ANOMALY":258.2657,"EPHEMERIS_TYPE":0,"CLASSIFICATION_TYPE":"U","NORAD_CAT_ID":49087,"ELEMENT_SET_NO":999,"REV_AT_EPOCH":20807,"BSTAR":0.00028081946,"MEAN_MOTION_DOT":1.22e-6,"MEAN_MOTION_DDOT":0},{"OBJECT_NAME":"ONEWEB-0299","OBJECT_ID":"2021-075P","EPOCH":"2025-12-05T04:14:30.379200","MEAN_MOTION":13.17649447,"ECCENTRICITY":0.00016168,"INCLINATION":87.9126,"RA_OF_ASC_NODE":44.4122,"ARG_OF_PERICENTER":105.4682,"MEAN_ANOMALY":254.6628,"EPHEMERIS_TYPE":0,"CLASSIFICATION_TYPE":"U","NORAD_CAT_ID":49088,"ELEMENT_SET_NO":999,"REV_AT_EPOCH":20805,"BSTAR":9.6676736e-5,"MEAN_MOTION_DOT":5.0e-7,"MEAN_MOTION_DDOT":0},{"OBJECT_NAME":"ONEWEB-0300","OBJECT_ID":"2021-075Q","EPOCH":"2025-12-05T03:45:31.826304","MEAN_MOTION":13.12443086,"ECCENTRICITY":0.0002049,"INCLINATION":87.895,"RA_OF_ASC_NODE":29.1967,"ARG_OF_PERICENTER":105.1676,"MEAN_ANOMALY":254.9679,"EPHEMERIS_TYPE":0,"CLASSIFICATION_TYPE":"U","NORAD_CAT_ID":49089,"ELEMENT_SET_NO":999,"REV_AT_EPOCH":20975,"BSTAR":-0.00027054064,"MEAN_MOTION_DOT":-8.5e-7,"MEAN_MOTION_DDOT":0},{"OBJECT_NAME":"ONEWEB-0301","OBJECT_ID":"2021-075R","EPOCH":"2025-12-05T05:11:57.811776","MEAN_MOTION":13.12442981,"ECCENTRICITY":0.00021232,"INCLINATION":87.8948,"RA_OF_ASC_NODE":29.1863,"ARG_OF_PERICENTER":105.8743,"MEAN_ANOMALY":254.262,"EPHEMERIS_TYPE":0,"CLASSIFICATION_TYPE":"U","NORAD_CAT_ID":49090,"ELEMENT_SET_NO":999,"REV_AT_EPOCH":20912,"BSTAR":0.001230097,"MEAN_MOTION_DOT":4.55e-6,"MEAN_MOTION_DDOT":0},{"OBJECT_NAME":"ONEWEB-0302","OBJECT_ID":"2021-075S","EPOCH":"2025-12-05T04:53:16.082304","MEAN_MOTION":13.12444837,"ECCENTRICITY":0.00014926,"INCLINATION":87.8948,"RA_OF_ASC_NODE":29.1972,"ARG_OF_PERICENTER":89.3547,"MEAN_ANOMALY":270.7753,"EPHEMERIS_TYPE":0,"CLASSIFICATION_TYPE":"U","NORAD_CAT_ID":49091,"ELEMENT_SET_NO":999,"REV_AT_EPOCH":20910,"BSTAR":0.0011675481,"MEAN_MOTION_DOT":4.33e-6,"MEAN_MOTION_DDOT":0},{"OBJECT_NAME":"ONEWEB-0304","OBJECT_ID":"2021-075T","EPOCH":"2025-12-05T03:38:03.793920","MEAN_MOTION":13.17648509,"ECCENTRICITY":0.00016151,"INCLINATION":87.9126,"RA_OF_ASC_NODE":44.4477,"ARG_OF_PERICENTER":102.6264,"MEAN_ANOMALY":257.5048,"EPHEMERIS_TYPE":0,"CLASSIFICATION_TYPE":"U","NORAD_CAT_ID":49092,"ELEMENT_SET_NO":999,"REV_AT_EPOCH":20802,"BSTAR":0.0001376422,"MEAN_MOTION_DOT":6.6e-7,"MEAN_MOTION_DDOT":0},{"OBJECT_NAME":"ONEWEB-0305","OBJECT_ID":"2021-075U","EPOCH":"2025-12-05T05:17:40.449984","MEAN_MOTION":13.17650388,"ECCENTRICITY":0.00014195,"INCLINATION":87.913,"RA_OF_ASC_NODE":44.4111,"ARG_OF_PERICENTER":112.6362,"MEAN_ANOMALY":247.4919,"EPHEMERIS_TYPE":0,"CLASSIFICATION_TYPE":"U","NORAD_CAT_ID":49093,"ELEMENT_SET_NO":999,"REV_AT_EPOCH":20806,"BSTAR":0.00010947499,"MEAN_MOTION_DOT":5.5e-7,"MEAN_MOTION_DDOT":0},{"OBJECT_NAME":"ONEWEB-0308","OBJECT_ID":"2021-075V","EPOCH":"2025-12-05T04:43:55.018848","MEAN_MOTION":13.12444117,"ECCENTRICITY":0.00017497,"INCLINATION":87.895,"RA_OF_ASC_NODE":29.1915,"ARG_OF_PERICENTER":98.2536,"MEAN_ANOMALY":261.8791,"EPHEMERIS_TYPE":0,"CLASSIFICATION_TYPE":"U","NORAD_CAT_ID":49094,"ELEMENT_SET_NO":999,"REV_AT_EPOCH":20911,"BSTAR":0.00070204454,"MEAN_MOTION_DOT":2.65e-6,"MEAN_MOTION_DDOT":0},{"OBJECT_NAME":"ONEWEB-0309","OBJECT_ID":"2021-075W","EPOCH":"2025-12-05T05:22:32.593440","MEAN_MOTION":13.17649274,"ECCENTRICITY":0.00014885,"INCLINATION":87.913,"RA_OF_ASC_NODE":44.4263,"ARG_OF_PERICENTER":87.7683,"MEAN_ANOMALY":272.3619,"EPHEMERIS_TYPE":0,"CLASSIFICATION_TYPE":"U","NORAD_CAT_ID":49095,"ELEMENT_SET_NO":999,"REV_AT_EPOCH":20803,"BSTAR":2.2372954e-5,"MEAN_MOTION_DOT":2.2e-7,"MEAN_MOTION_DDOT":0},{"OBJECT_NAME":"ONEWEB-0310","OBJECT_ID":"2021-075X","EPOCH":"2025-12-05T05:04:56.504640","MEAN_MOTION":13.12444108,"ECCENTRICITY":0.0001648,"INCLINATION":87.8942,"RA_OF_ASC_NODE":29.2261,"ARG_OF_PERICENTER":95.1267,"MEAN_ANOMALY":265.0049,"EPHEMERIS_TYPE":0,"CLASSIFICATION_TYPE":"U","NORAD_CAT_ID":49096,"ELEMENT_SET_NO":999,"REV_AT_EPOCH":20974,"BSTAR":0.0015847877,"MEAN_MOTION_DOT":5.83e-6,"MEAN_MOTION_DDOT":0},{"OBJECT_NAME":"ONEWEB-0311","OBJECT_ID":"2021-075Y","EPOCH":"2025-12-05T03:42:54.643968","MEAN_MOTION":13.17647911,"ECCENTRICITY":0.00015594,"INCLINATION":87.9125,"RA_OF_ASC_NODE":44.436,"ARG_OF_PERICENTER":112.4599,"MEAN_ANOMALY":247.6698,"EPHEMERIS_TYPE":0,"CLASSIFICATION_TYPE":"U","NORAD_CAT_ID":49097,"ELEMENT_SET_NO":999,"REV_AT_EPOCH":20807,"BSTAR":0.00024437737,"MEAN_MOTION_DOT":1.08e-6,"MEAN_MOTION_DDOT":0},{"OBJECT_NAME":"ONEWEB-0312","OBJECT_ID":"2021-075Z","EPOCH":"2025-12-05T04:04:47.275968","MEAN_MOTION":13.1764893,"ECCENTRICITY":0.00013399,"INCLINATION":87.9113,"RA_OF_ASC_NODE":44.4595,"ARG_OF_PERICENTER":102.168,"MEAN_ANOMALY":257.9601,"EPHEMERIS_TYPE":0,"CLASSIFICATION_TYPE":"U","NORAD_CAT_ID":49098,"ELEMENT_SET_NO":999,"REV_AT_EPOCH":20805,"BSTAR":6.2047383e-5,"MEAN_MOTION_DOT":3.7e-7,"MEAN_MOTION_DDOT":0},{"OBJECT_NAME":"ONEWEB-0313","OBJECT_ID":"2021-075AA","EPOCH":"2025-12-05T04:11:53.310912","MEAN_MOTION":13.17651363,"ECCENTRICITY":0.00016258,"INCLINATION":87.9114,"RA_OF_ASC_NODE":44.4664,"ARG_OF_PERICENTER":103.8437,"MEAN_ANOMALY":256.2876,"EPHEMERIS_TYPE":0,"CLASSIFICATION_TYPE":"U","NORAD_CAT_ID":49099,"ELEMENT_SET_NO":999,"REV_AT_EPOCH":20804,"BSTAR":0.00020522411,"MEAN_MOTION_DOT":9.3e-7,"MEAN_MOTION_DDOT":0},{"OBJECT_NAME":"ONEWEB-0314","OBJECT_ID":"2021-075AB","EPOCH":"2025-12-05T05:12:49.374432","MEAN_MOTION":13.17649435,"ECCENTRICITY":0.0001309,"INCLINATION":87.913,"RA_OF_ASC_NODE":44.4093,"ARG_OF_PERICENTER":105.073,"MEAN_ANOMALY":255.0547,"EPHEMERIS_TYPE":0,"CLASSIFICATION_TYPE":"U","NORAD_CAT_ID":49100,"ELEMENT_SET_NO":999,"REV_AT_EPOCH":20802,"BSTAR":-5.3524913e-5,"MEAN_MOTION_DOT":-8.0e-8,"MEAN_MOTION_DDOT":0},{"OBJECT_NAME":"ONEWEB-0315","OBJECT_ID":"2021-075AC","EPOCH":"2025-12-05T04:27:34.130880","MEAN_MOTION":13.12444841,"ECCENTRICITY":0.00016548,"INCLINATION":87.8946,"RA_OF_ASC_NODE":29.1796,"ARG_OF_PERICENTER":111.7769,"MEAN_ANOMALY":248.3536,"EPHEMERIS_TYPE":0,"CLASSIFICATION_TYPE":"U","NORAD_CAT_ID":49101,"ELEMENT_SET_NO":999,"REV_AT_EPOCH":20972,"BSTAR":-0.00042517131,"MEAN_MOTION_DOT":-1.4e-6,"MEAN_MOTION_DDOT":0},{"OBJECT_NAME":"ONEWEB-0316","OBJECT_ID":"2021-075AD","EPOCH":"2025-12-05T03:25:26.023584","MEAN_MOTION":13.1868539,"ECCENTRICITY":0.00017368,"INCLINATION":87.9186,"RA_OF_ASC_NODE":14.0077,"ARG_OF_PERICENTER":98.4044,"MEAN_ANOMALY":261.7285,"EPHEMERIS_TYPE":0,"CLASSIFICATION_TYPE":"U","NORAD_CAT_ID":49102,"ELEMENT_SET_NO":999,"REV_AT_EPOCH":21163,"BSTAR":0.00014902901,"MEAN_MOTION_DOT":7.2e-7,"MEAN_MOTION_DDOT":0},{"OBJECT_NAME":"ONEWEB-0317","OBJECT_ID":"2021-075AE","EPOCH":"2025-12-05T04:18:13.514112","MEAN_MOTION":13.1244253,"ECCENTRICITY":0.00019587,"INCLINATION":87.8949,"RA_OF_ASC_NODE":29.1982,"ARG_OF_PERICENTER":75.398,"MEAN_ANOMALY":284.7366,"EPHEMERIS_TYPE":0,"CLASSIFICATION_TYPE":"U","NORAD_CAT_ID":49103,"ELEMENT_SET_NO":999,"REV_AT_EPOCH":20974,"BSTAR":-0.00072660103,"MEAN_MOTION_DOT":-2.49e-6,"MEAN_MOTION_DDOT":0}]
